IRIDIUM 57 [-]          
1 25273U 98019B   23250.91376248  .00000486  00000+0  16419-3 0  9999
2 25273  86.3931  56.7035 0002103  90.8166 269.3271 14.34886975331791
IRIDIUM 63 [-]          
1 25286U 98021B   23251.38880103  .00000474  00000+0  15854-3 0  9997
2 25286  86.4046 353.4611 0002083  98.5474 261.5958 14.35396952331152
IRIDIUM 69 [-]          
1 25319U 98026A   23251.37641974  .00000744  00000+0  23239-3 0  9995
2 25319  86.4038   8.6565 0002947  44.7811 315.3626 14.39545684330065
IRIDIUM 71 [-]          
1 25320U 98026B   23251.37085415  .00000613  00000+0  18878-3 0  9997
2 25320  86.4036   3.5038 0004151  78.4059 281.7605 14.39889976330586
IRIDIUM 73 [-]          
1 25344U 98032C   23250.72440511  .00000563  00000+0  14013-3 0  9991
2 25344  86.4444 321.6960 0002520  78.0107 282.1380 14.50007521336549
IRIDIUM 82 [-]          
1 25467U 98051A   23251.46931836  .00016306  00000+0  98425-3 0  9996
2 25467  86.3915  58.5482 0149430 172.1822 188.1795 15.01620484325947
IRIDIUM 2 [-]           
1 25527U 98066A   23251.03435169  .00032204  00000+0  82810-3 0  9996
2 25527  85.5198 121.2720 0005505   6.5630 353.5694 15.39107191363407
